%
(Roulant 5 axes1)
(T3 D=3. CR=0. - fraise a bout plat)
N10 G90 G94
N15 G17
N20 G21
N35 T3 M6
N25 G53 G1 Z0. F300.
N30 G53 G1 X-38. Y29. Z25

(Face1)

N40 S30000 M3
N45 G54
N50 G1 B0. C0.
N55 M8
N60 G1 X21.87845 Y-18.601801 F300.
N65 G43 Z21.5 H3
N70 Z18.6 F333.333008
N75 G18 G3 X21.578449 Z18.299999 I-0.300001 K0. F1000.
N80 G1 X19.92845
N85 X-20.011551
N90 G3 X-20.31155 Z18.6 I0. K0.300001
N95 G1 Z23.5 F300.
N100 X21.87845 Y-15.9366 F300.
N105 Z18.6 F333.333008
N110 G3 X21.578449 Z18.299999 I-0.300001 K0. F1000.
N115 G1 X19.92845
N120 X-20.011551
N125 G3 X-20.31155 Z18.6 I0. K0.300001
N130 G1 Z23.5 F300.
N135 X21.87845 Y-13.2714 F300.
N140 Z18.6 F333.333008
N145 G3 X21.578449 Z18.299999 I-0.300001 K0. F1000.
N150 G1 X19.92845
N155 X-20.011551
N160 G3 X-20.31155 Z18.6 I0. K0.300001
N165 G1 Z23.5 F300.
N170 X21.87845 Y-10.6062 F300.
N175 Z18.6 F333.333008
N180 G3 X21.578449 Z18.299999 I-0.300001 K0. F1000.
N185 G1 X19.92845
N190 X-20.011551
N195 G3 X-20.31155 Z18.6 I0. K0.300001
N200 G1 Z23.5 F300.
N205 X21.87845 Y-7.941 F300.
N210 Z18.6 F333.333008
N215 G3 X21.578449 Z18.299999 I-0.300001 K0. F1000.
N220 G1 X19.92845
N225 X-20.011551
N230 G3 X-20.31155 Z18.6 I0. K0.300001
N235 G1 Z23.5 F300.
N240 X21.87845 Y-5.2758 F300.
N245 Z18.6 F333.333008
N250 G3 X21.578449 Z18.299999 I-0.300001 K0. F1000.
N255 G1 X19.92845
N260 X-20.011551
N265 G3 X-20.31155 Z18.6 I0. K0.300001
N270 G1 Z23.5 F300.
N275 X21.87845 Y-2.6106 F300.
N280 Z18.6 F333.333008
N285 G3 X21.578449 Z18.299999 I-0.300001 K0. F1000.
N290 G1 X19.92845
N295 X-20.011551
N300 G3 X-20.31155 Z18.6 I0. K0.300001
N305 G1 Z23.5 F300.
N310 X21.87845 Y0.0546 F300.
N315 Z18.6 F333.333008
N320 G3 X21.578449 Z18.299999 I-0.300001 K0. F1000.
N325 G1 X19.92845
N330 X-20.011551
N335 G3 X-20.31155 Z18.6 I0. K0.300001
N340 G1 Z23.5 F300.
N345 X21.87845 Y2.7198 F300.
N350 Z18.6 F333.333008
N355 G3 X21.578449 Z18.299999 I-0.300001 K0. F1000.
N360 G1 X19.92845
N365 X-20.011551
N370 G3 X-20.31155 Z18.6 I0. K0.300001
N375 G1 Z23.5 F300.
N380 X21.87845 Y5.385 F300.
N385 Z18.6 F333.333008
N390 G3 X21.578449 Z18.299999 I-0.300001 K0. F1000.
N395 G1 X19.92845
N400 X-20.011551
N405 G3 X-20.31155 Z18.6 I0. K0.300001
N410 G1 Z23.5 F300.
N415 X21.87845 Y8.0502 F300.
N420 Z18.6 F333.333008
N425 G3 X21.578449 Z18.299999 I-0.300001 K0. F1000.
N430 G1 X19.92845
N435 X-20.011551
N440 G3 X-20.31155 Z18.6 I0. K0.300001
N445 G1 Z23.5 F300.
N450 X21.87845 Y10.7154 F300.
N455 Z18.6 F333.333008
N460 G3 X21.578449 Z18.299999 I-0.300001 K0. F1000.
N465 G1 X19.92845
N470 X-20.011551
N475 G3 X-20.31155 Z18.6 I0. K0.300001
N480 G1 Z23.5 F300.
N485 X21.87845 Y13.3806 F300.
N490 Z18.6 F333.333008
N495 G3 X21.578449 Z18.299999 I-0.300001 K0. F1000.
N500 G1 X19.92845
N505 X-20.011551
N510 G3 X-20.31155 Z18.6 I0. K0.300001
N515 G1 Z23.5 F300.
N520 X21.87845 Y16.045799 F300.
N525 Z18.6 F333.333008
N530 G3 X21.578449 Z18.299999 I-0.300001 K0. F1000.
N535 G1 X19.92845
N540 X-20.011551
N545 G3 X-20.31155 Z18.6 I0. K0.300001
N550 G1 Z23.5 F300.
N555 X21.87845 Y18.711 F300.
N560 Z18.6 F333.333008
N565 G3 X21.578449 Z18.299999 I-0.300001 K0. F1000.
N570 G1 X19.92845
N575 X-20.011551
N580 G3 X-20.31155 Z18.6 I0. K0.300001
N585 G1 Z23.5 F300.
N590 X21.87845 Y-18.601801 F300.
N595 Z18.200001 F333.333008
N600 G3 X21.578449 Z17.9 I-0.300001 K0. F1000.
N605 G1 X19.92845
N610 X-20.011551
N615 G3 X-20.31155 Z18.200001 I0. K0.300001
N620 G1 Z23.5 F300.
N625 X21.87845 Y-15.9366 F300.
N630 Z18.200001 F333.333008
N635 G3 X21.578449 Z17.9 I-0.300001 K0. F1000.
N640 G1 X19.92845
N645 X-20.011551
N650 G3 X-20.31155 Z18.200001 I0. K0.300001
N655 G1 Z23.5 F300.
N660 X21.87845 Y-13.2714 F300.
N665 Z18.200001 F333.333008
N670 G3 X21.578449 Z17.9 I-0.300001 K0. F1000.
N675 G1 X19.92845
N680 X-20.011551
N685 G3 X-20.31155 Z18.200001 I0. K0.300001
N690 G1 Z23.5 F300.
N695 X21.87845 Y-10.6062 F300.
N700 Z18.200001 F333.333008
N705 G3 X21.578449 Z17.9 I-0.300001 K0. F1000.
N710 G1 X19.92845
N715 X-20.011551
N720 G3 X-20.31155 Z18.200001 I0. K0.300001
N725 G1 Z23.5 F300.
N730 X21.87845 Y-7.941 F300.
N735 Z18.200001 F333.333008
N740 G3 X21.578449 Z17.9 I-0.300001 K0. F1000.
N745 G1 X19.92845
N750 X-20.011551
N755 G3 X-20.31155 Z18.200001 I0. K0.300001
N760 G1 Z23.5 F300.
N765 X21.87845 Y-5.2758 F300.
N770 Z18.200001 F333.333008
N775 G3 X21.578449 Z17.9 I-0.300001 K0. F1000.
N780 G1 X19.92845
N785 X-20.011551
N790 G3 X-20.31155 Z18.200001 I0. K0.300001
N795 G1 Z23.5 F300.
N800 X21.87845 Y-2.6106 F300.
N805 Z18.200001 F333.333008
N810 G3 X21.578449 Z17.9 I-0.300001 K0. F1000.
N815 G1 X19.92845
N820 X-20.011551
N825 G3 X-20.31155 Z18.200001 I0. K0.300001
N830 G1 Z23.5 F300.
N835 X21.87845 Y0.0546 F300.
N840 Z18.200001 F333.333008
N845 G3 X21.578449 Z17.9 I-0.300001 K0. F1000.
N850 G1 X19.92845
N855 X-20.011551
N860 G3 X-20.31155 Z18.200001 I0. K0.300001
N865 G1 Z23.5 F300.
N870 X21.87845 Y2.7198 F300.
N875 Z18.200001 F333.333008
N880 G3 X21.578449 Z17.9 I-0.300001 K0. F1000.
N885 G1 X19.92845
N890 X-20.011551
N895 G3 X-20.31155 Z18.200001 I0. K0.300001
N900 G1 Z23.5 F300.
N905 X21.87845 Y5.385 F300.
N910 Z18.200001 F333.333008
N915 G3 X21.578449 Z17.9 I-0.300001 K0. F1000.
N920 G1 X19.92845
N925 X-20.011551
N930 G3 X-20.31155 Z18.200001 I0. K0.300001
N935 G1 Z23.5 F300.
N940 X21.87845 Y8.0502 F300.
N945 Z18.200001 F333.333008
N950 G3 X21.578449 Z17.9 I-0.300001 K0. F1000.
N955 G1 X19.92845
N960 X-20.011551
N965 G3 X-20.31155 Z18.200001 I0. K0.300001
N970 G1 Z23.5 F300.
N975 X21.87845 Y10.7154 F300.
N980 Z18.200001 F333.333008
N985 G3 X21.578449 Z17.9 I-0.300001 K0. F1000.
N990 G1 X19.92845
N995 X-20.011551
N1000 G3 X-20.31155 Z18.200001 I0. K0.300001
N1005 G1 Z23.5 F300.
N1010 X21.87845 Y13.3806 F300.
N1015 Z18.200001 F333.333008
N1020 G3 X21.578449 Z17.9 I-0.300001 K0. F1000.
N1025 G1 X19.92845
N1030 X-20.011551
N1035 G3 X-20.31155 Z18.200001 I0. K0.300001
N1040 G1 Z23.5 F300.
N1045 X21.87845 Y16.045799 F300.
N1050 Z18.200001 F333.333008
N1055 G3 X21.578449 Z17.9 I-0.300001 K0. F1000.
N1060 G1 X19.92845
N1065 X-20.011551
N1070 G3 X-20.31155 Z18.200001 I0. K0.300001
N1075 G1 Z23.5 F300.
N1080 X21.87845 Y18.711 F300.
N1085 Z18.200001 F333.333008
N1090 G3 X21.578449 Z17.9 I-0.300001 K0. F1000.
N1095 G1 X19.92845
N1100 X-20.011551
N1105 G3 X-20.31155 Z18.200001 I0. K0.300001
N1110 G1 Z23.5 F300.
N1115 X21.87845 Y-18.601801 F300.
N1120 Z17.799999 F333.333008
N1125 G3 X21.578449 Z17.5 I-0.300001 K0. F1000.
N1130 G1 X19.92845
N1135 X-20.011551
N1140 G3 X-20.31155 Z17.799999 I0. K0.299999
N1145 G1 Z23.5 F300.
N1150 X21.87845 Y-15.9366 F300.
N1155 Z17.799999 F333.333008
N1160 G3 X21.578449 Z17.5 I-0.300001 K0. F1000.
N1165 G1 X19.92845
N1170 X-20.011551
N1175 G3 X-20.31155 Z17.799999 I0. K0.299999
N1180 G1 Z23.5 F300.
N1185 X21.87845 Y-13.2714 F300.
N1190 Z17.799999 F333.333008
N1195 G3 X21.578449 Z17.5 I-0.300001 K0. F1000.
N1200 G1 X19.92845
N1205 X-20.011551
N1210 G3 X-20.31155 Z17.799999 I0. K0.299999
N1215 G1 Z23.5 F300.
N1220 X21.87845 Y-10.6062 F300.
N1225 Z17.799999 F333.333008
N1230 G3 X21.578449 Z17.5 I-0.300001 K0. F1000.
N1235 G1 X19.92845
N1240 X-20.011551
N1245 G3 X-20.31155 Z17.799999 I0. K0.299999
N1250 G1 Z23.5 F300.
N1255 X21.87845 Y-7.941 F300.
N1260 Z17.799999 F333.333008
N1265 G3 X21.578449 Z17.5 I-0.300001 K0. F1000.
N1270 G1 X19.92845
N1275 X-20.011551
N1280 G3 X-20.31155 Z17.799999 I0. K0.299999
N1285 G1 Z23.5 F300.
N1290 X21.87845 Y-5.2758 F300.
N1295 Z17.799999 F333.333008
N1300 G3 X21.578449 Z17.5 I-0.300001 K0. F1000.
N1305 G1 X19.92845
N1310 X-20.011551
N1315 G3 X-20.31155 Z17.799999 I0. K0.299999
N1320 G1 Z23.5 F300.
N1325 X21.87845 Y-2.6106 F300.
N1330 Z17.799999 F333.333008
N1335 G3 X21.578449 Z17.5 I-0.300001 K0. F1000.
N1340 G1 X19.92845
N1345 X-20.011551
N1350 G3 X-20.31155 Z17.799999 I0. K0.299999
N1355 G1 Z23.5 F300.
N1360 X21.87845 Y0.0546 F300.
N1365 Z17.799999 F333.333008
N1370 G3 X21.578449 Z17.5 I-0.300001 K0. F1000.
N1375 G1 X19.92845
N1380 X-20.011551
N1385 G3 X-20.31155 Z17.799999 I0. K0.299999
N1390 G1 Z23.5 F300.
N1395 X21.87845 Y2.7198 F300.
N1400 Z17.799999 F333.333008
N1405 G3 X21.578449 Z17.5 I-0.300001 K0. F1000.
N1410 G1 X19.92845
N1415 X-20.011551
N1420 G3 X-20.31155 Z17.799999 I0. K0.299999
N1425 G1 Z23.5 F300.
N1430 X21.87845 Y5.385 F300.
N1435 Z17.799999 F333.333008
N1440 G3 X21.578449 Z17.5 I-0.300001 K0. F1000.
N1445 G1 X19.92845
N1450 X-20.011551
N1455 G3 X-20.31155 Z17.799999 I0. K0.299999
N1460 G1 Z23.5 F300.
N1465 X21.87845 Y8.0502 F300.
N1470 Z17.799999 F333.333008
N1475 G3 X21.578449 Z17.5 I-0.300001 K0. F1000.
N1480 G1 X19.92845
N1485 X-20.011551
N1490 G3 X-20.31155 Z17.799999 I0. K0.299999
N1495 G1 Z23.5 F300.
N1500 X21.87845 Y10.7154 F300.
N1505 Z17.799999 F333.333008
N1510 G3 X21.578449 Z17.5 I-0.300001 K0. F1000.
N1515 G1 X19.92845
N1520 X-20.011551
N1525 G3 X-20.31155 Z17.799999 I0. K0.299999
N1530 G1 Z23.5 F300.
N1535 X21.87845 Y13.3806 F300.
N1540 Z17.799999 F333.333008
N1545 G3 X21.578449 Z17.5 I-0.300001 K0. F1000.
N1550 G1 X19.92845
N1555 X-20.011551
N1560 G3 X-20.31155 Z17.799999 I0. K0.299999
N1565 G1 Z23.5 F300.
N1570 X21.87845 Y16.045799 F300.
N1575 Z17.799999 F333.333008
N1580 G3 X21.578449 Z17.5 I-0.300001 K0. F1000.
N1585 G1 X19.92845
N1590 X-20.011551
N1595 G3 X-20.31155 Z17.799999 I0. K0.299999
N1600 G1 Z23.5 F300.
N1605 X21.87845 Y18.711 F300.
N1610 Z17.799999 F333.333008
N1615 G3 X21.578449 Z17.5 I-0.300001 K0. F1000.
N1620 G1 X19.92845
N1625 X-20.011551
N1630 G3 X-20.31155 Z17.799999 I0. K0.299999
N1635 G1 Z23.5 F300.
N1640 X21.87845 Y-18.601801 F300.
N1645 Z17.700001 F333.333008
N1650 G3 X21.578449 Z17.4 I-0.300001 K0. F1000.
N1655 G1 X19.92845
N1660 X-20.011551
N1665 G3 X-20.31155 Z17.700001 I0. K0.300001
N1670 G1 Z23.5 F300.
N1675 X21.87845 Y-15.9366 F300.
N1680 Z17.700001 F333.333008
N1685 G3 X21.578449 Z17.4 I-0.300001 K0. F1000.
N1690 G1 X19.92845
N1695 X-20.011551
N1700 G3 X-20.31155 Z17.700001 I0. K0.300001
N1705 G1 Z23.5 F300.
N1710 X21.87845 Y-13.2714 F300.
N1715 Z17.700001 F333.333008
N1720 G3 X21.578449 Z17.4 I-0.300001 K0. F1000.
N1725 G1 X19.92845
N1730 X-20.011551
N1735 G3 X-20.31155 Z17.700001 I0. K0.300001
N1740 G1 Z23.5 F300.
N1745 X21.87845 Y-10.6062 F300.
N1750 Z17.700001 F333.333008
N1755 G3 X21.578449 Z17.4 I-0.300001 K0. F1000.
N1760 G1 X19.92845
N1765 X-20.011551
N1770 G3 X-20.31155 Z17.700001 I0. K0.300001
N1775 G1 Z23.5 F300.
N1780 X21.87845 Y-7.941 F300.
N1785 Z17.700001 F333.333008
N1790 G3 X21.578449 Z17.4 I-0.300001 K0. F1000.
N1795 G1 X19.92845
N1800 X-20.011551
N1805 G3 X-20.31155 Z17.700001 I0. K0.300001
N1810 G1 Z23.5 F300.
N1815 X21.87845 Y-5.2758 F300.
N1820 Z17.700001 F333.333008
N1825 G3 X21.578449 Z17.4 I-0.300001 K0. F1000.
N1830 G1 X19.92845
N1835 X-20.011551
N1840 G3 X-20.31155 Z17.700001 I0. K0.300001
N1845 G1 Z23.5 F300.
N1850 X21.87845 Y-2.6106 F300.
N1855 Z17.700001 F333.333008
N1860 G3 X21.578449 Z17.4 I-0.300001 K0. F1000.
N1865 G1 X19.92845
N1870 X-20.011551
N1875 G3 X-20.31155 Z17.700001 I0. K0.300001
N1880 G1 Z23.5 F300.
N1885 X21.87845 Y0.0546 F300.
N1890 Z17.700001 F333.333008
N1895 G3 X21.578449 Z17.4 I-0.300001 K0. F1000.
N1900 G1 X19.92845
N1905 X-20.011551
N1910 G3 X-20.31155 Z17.700001 I0. K0.300001
N1915 G1 Z23.5 F300.
N1920 X21.87845 Y2.7198 F300.
N1925 Z17.700001 F333.333008
N1930 G3 X21.578449 Z17.4 I-0.300001 K0. F1000.
N1935 G1 X19.92845
N1940 X-20.011551
N1945 G3 X-20.31155 Z17.700001 I0. K0.300001
N1950 G1 Z23.5 F300.
N1955 X21.87845 Y5.385 F300.
N1960 Z17.700001 F333.333008
N1965 G3 X21.578449 Z17.4 I-0.300001 K0. F1000.
N1970 G1 X19.92845
N1975 X-20.011551
N1980 G3 X-20.31155 Z17.700001 I0. K0.300001
N1985 G1 Z23.5 F300.
N1990 X21.87845 Y8.0502 F300.
N1995 Z17.700001 F333.333008
N2000 G3 X21.578449 Z17.4 I-0.300001 K0. F1000.
N2005 G1 X19.92845
N2010 X-20.011551
N2015 G3 X-20.31155 Z17.700001 I0. K0.300001
N2020 G1 Z23.5 F300.
N2025 X21.87845 Y10.7154 F300.
N2030 Z17.700001 F333.333008
N2035 G3 X21.578449 Z17.4 I-0.300001 K0. F1000.
N2040 G1 X19.92845
N2045 X-20.011551
N2050 G3 X-20.31155 Z17.700001 I0. K0.300001
N2055 G1 Z23.5 F300.
N2060 X21.87845 Y13.3806 F300.
N2065 Z17.700001 F333.333008
N2070 G3 X21.578449 Z17.4 I-0.300001 K0. F1000.
N2075 G1 X19.92845
N2080 X-20.011551
N2085 G3 X-20.31155 Z17.700001 I0. K0.300001
N2090 G1 Z23.5 F300.
N2095 X21.87845 Y16.045799 F300.
N2100 Z17.700001 F333.333008
N2105 G3 X21.578449 Z17.4 I-0.300001 K0. F1000.
N2110 G1 X19.92845
N2115 X-20.011551
N2120 G3 X-20.31155 Z17.700001 I0. K0.300001
N2125 G1 Z23.5 F300.
N2130 X21.87845 Y18.711 F300.
N2135 Z17.700001 F333.333008
N2140 G3 X21.578449 Z17.4 I-0.300001 K0. F1000.
N2145 G1 X19.92845
N2150 X-20.011551
N2155 G3 X-20.31155 Z17.700001 I0. K0.300001
N2160 G1 Z21.5 F300.
N2165 G17

(Contour 2D1)
N2170 G1 Z23.5 F300.
N2175 X0.258451 Y-21.495501
N2180 Z20.5 F333.333008
N2185 Z18.4
N2190 G19 G3 Y-21.195499 Z18.1 J0.300001 K0. F1000.
N2195 G1 Y-20.8955
N2200 G17 G3 X-0.041549 Y-20.595501 I-0.3 J0.
N2205 G1 X-19.011551
N2210 G2 X-20.81155 Y-18.7955 I0. J1.800001
N2215 G1 Y19.164499
N2220 G2 X-19.011551 Y20.9645 I1.799999 J0.
N2225 G1 X18.92845
N2230 G2 X20.728451 Y19.164499 I0. J-1.800001
N2235 G1 Y-18.7955
N2240 G2 X18.92845 Y-20.595501 I-1.800001 J0.
N2245 G1 X-0.041549
N2250 G2 X-0.266549 Y-20.445499 I0. J0.243752
N2255 G3 X-0.491549 Y-20.2955 I-0.225 J-0.09375
N2260 G1 X-19.011551
N2265 G2 X-20.511551 Y-18.7955 I0. J1.5
N2270 G1 Y19.164499
N2275 G2 X-19.011551 Y20.664499 I1.5 J0.
N2280 G1 X18.92845
N2285 G2 X20.42845 Y19.164499 I0. J-1.5
N2290 G1 Y-18.7955
N2295 G2 X18.92845 Y-20.2955 I-1.5 J0.
N2300 G1 X-0.491549
N2305 G3 X-0.791549 Y-20.595501 I0. J-0.300001
N2310 G1 Y-20.8955
N2315 G19 G2 Y-21.195499 Z18.4 J0. K0.299999
N2320 G1 X0.258451 Y-21.495501
N2325 Z17.999998 F333.333008
N2330 G3 Y-21.195499 Z17.700001 J0.300001 K0.000002 F1000.
N2335 G1 Y-20.8955
N2340 G17 G3 X-0.041549 Y-20.595501 I-0.3 J0.
N2345 G1 X-19.011551
N2350 G2 X-20.81155 Y-18.7955 I0. J1.800001
N2355 G1 Y19.164499
N2360 G2 X-19.011551 Y20.9645 I1.799999 J0.
N2365 G1 X18.92845
N2370 G2 X20.728451 Y19.164499 I0. J-1.800001
N2375 G1 Y-18.7955
N2380 G2 X18.92845 Y-20.595501 I-1.800001 J0.
N2385 G1 X-0.041549
N2390 G2 X-0.266549 Y-20.445499 I0. J0.243752
N2395 G3 X-0.491549 Y-20.2955 I-0.225 J-0.09375
N2400 G1 X-19.011551
N2405 G2 X-20.511551 Y-18.7955 I0. J1.5
N2410 G1 Y19.164499
N2415 G2 X-19.011551 Y20.664499 I1.5 J0.
N2420 G1 X18.92845
N2425 G2 X20.42845 Y19.164499 I0. J-1.5
N2430 G1 Y-18.7955
N2435 G2 X18.92845 Y-20.2955 I-1.5 J0.
N2440 G1 X-0.491549
N2445 G3 X-0.791549 Y-20.595501 I0. J-0.300001
N2450 G1 Y-20.8955
N2455 G19 G2 Y-21.195499 Z17.999998 J0. K0.299999
N2460 G1 X0.258451 Y-21.495501
N2465 Z17.599998 F333.333008
N2470 G3 Y-21.195499 Z17.299999 J0.300001 K0.000002 F1000.
N2475 G1 Y-20.8955
N2480 G17 G3 X-0.041549 Y-20.595501 I-0.3 J0.
N2485 G1 X-19.011551
N2490 G2 X-20.81155 Y-18.7955 I0. J1.800001
N2495 G1 Y19.164499
N2500 G2 X-19.011551 Y20.9645 I1.799999 J0.
N2505 G1 X18.92845
N2510 G2 X20.728451 Y19.164499 I0. J-1.800001
N2515 G1 Y-18.7955
N2520 G2 X18.92845 Y-20.595501 I-1.800001 J0.
N2525 G1 X-0.041549
N2530 G2 X-0.266549 Y-20.445499 I0. J0.243752
N2535 G3 X-0.491549 Y-20.2955 I-0.225 J-0.09375
N2540 G1 X-19.011551
N2545 G2 X-20.511551 Y-18.7955 I0. J1.5
N2550 G1 Y19.164499
N2555 G2 X-19.011551 Y20.664499 I1.5 J0.
N2560 G1 X18.92845
N2565 G2 X20.42845 Y19.164499 I0. J-1.5
N2570 G1 Y-18.7955
N2575 G2 X18.92845 Y-20.2955 I-1.5 J0.
N2580 G1 X-0.491549
N2585 G3 X-0.791549 Y-20.595501 I0. J-0.300001
N2590 G1 Y-20.8955
N2595 G19 G2 Y-21.195499 Z17.599998 J0. K0.300001
N2600 G1 X0.258451 Y-21.495501
N2605 Z17.199999 F333.333008
N2610 G3 Y-21.195499 Z16.9 J0.300001 K0.000002 F1000.
N2615 G1 Y-20.8955
N2620 G17 G3 X-0.041549 Y-20.595501 I-0.3 J0.
N2625 G1 X-19.011551
N2630 G2 X-20.81155 Y-18.7955 I0. J1.800001
N2635 G1 Y19.164499
N2640 G2 X-19.011551 Y20.9645 I1.799999 J0.
N2645 G1 X18.92845
N2650 G2 X20.728451 Y19.164499 I0. J-1.800001
N2655 G1 Y-18.7955
N2660 G2 X18.92845 Y-20.595501 I-1.800001 J0.
N2665 G1 X-0.041549
N2670 G2 X-0.266549 Y-20.445499 I0. J0.243752
N2675 G3 X-0.491549 Y-20.2955 I-0.225 J-0.09375
N2680 G1 X-19.011551
N2685 G2 X-20.511551 Y-18.7955 I0. J1.5
N2690 G1 Y19.164499
N2695 G2 X-19.011551 Y20.664499 I1.5 J0.
N2700 G1 X18.92845
N2705 G2 X20.42845 Y19.164499 I0. J-1.5
N2710 G1 Y-18.7955
N2715 G2 X18.92845 Y-20.2955 I-1.5 J0.
N2720 G1 X-0.491549
N2725 G3 X-0.791549 Y-20.595501 I0. J-0.300001
N2730 G1 Y-20.8955
N2735 G19 G2 Y-21.195499 Z17.199999 J0. K0.300001
N2740 G1 X0.258451 Y-21.495501
N2745 Z16.799999 F333.333008
N2750 G3 Y-21.195499 Z16.5 J0.300001 K0. F1000.
N2755 G1 Y-20.8955
N2760 G17 G3 X-0.041549 Y-20.595501 I-0.3 J0.
N2765 G1 X-19.011551
N2770 G2 X-20.81155 Y-18.7955 I0. J1.800001
N2775 G1 Y19.164499
N2780 G2 X-19.011551 Y20.9645 I1.799999 J0.
N2785 G1 X18.92845
N2790 G2 X20.728451 Y19.164499 I0. J-1.800001
N2795 G1 Y-18.7955
N2800 G2 X18.92845 Y-20.595501 I-1.800001 J0.
N2805 G1 X-0.041549
N2810 G2 X-0.266549 Y-20.445499 I0. J0.243752
N2815 G3 X-0.491549 Y-20.2955 I-0.225 J-0.09375
N2820 G1 X-19.011551
N2825 G2 X-20.511551 Y-18.7955 I0. J1.5
N2830 G1 Y19.164499
N2835 G2 X-19.011551 Y20.664499 I1.5 J0.
N2840 G1 X18.92845
N2845 G2 X20.42845 Y19.164499 I0. J-1.5
N2850 G1 Y-18.7955
N2855 G2 X18.92845 Y-20.2955 I-1.5 J0.
N2860 G1 X-0.491549
N2865 G3 X-0.791549 Y-20.595501 I0. J-0.300001
N2870 G1 Y-20.8955
N2875 G19 G2 Y-21.195499 Z16.799999 J0. K0.299999
N2880 G1 X0.258451 Y-21.495501
N2885 Z16.4 F333.333008
N2890 G3 Y-21.195499 Z16.1 J0.300001 K0. F1000.
N2895 G1 Y-20.8955
N2900 G17 G3 X-0.041549 Y-20.595501 I-0.3 J0.
N2905 G1 X-19.011551
N2910 G2 X-20.81155 Y-18.7955 I0. J1.800001
N2915 G1 Y19.164499
N2920 G2 X-19.011551 Y20.9645 I1.799999 J0.
N2925 G1 X18.92845
N2930 G2 X20.728451 Y19.164499 I0. J-1.800001
N2935 G1 Y-18.7955
N2940 G2 X18.92845 Y-20.595501 I-1.800001 J0.
N2945 G1 X-0.041549
N2950 G2 X-0.266549 Y-20.445499 I0. J0.243752
N2955 G3 X-0.491549 Y-20.2955 I-0.225 J-0.09375
N2960 G1 X-19.011551
N2965 G2 X-20.511551 Y-18.7955 I0. J1.5
N2970 G1 Y19.164499
N2975 G2 X-19.011551 Y20.664499 I1.5 J0.
N2980 G1 X18.92845
N2985 G2 X20.42845 Y19.164499 I0. J-1.5
N2990 G1 Y-18.7955
N2995 G2 X18.92845 Y-20.2955 I-1.5 J0.
N3000 G1 X-0.491549
N3005 G3 X-0.791549 Y-20.595501 I0. J-0.300001
N3010 G1 Y-20.8955
N3015 G19 G2 Y-21.195499 Z16.4 J0. K0.299999
N3020 G1 X0.258451 Y-21.495501
N3025 Z15.999999 F333.333008
N3030 G3 Y-21.195499 Z15.7 J0.300001 K0.000001 F1000.
N3035 G1 Y-20.8955
N3040 G17 G3 X-0.041549 Y-20.595501 I-0.3 J0.
N3045 G1 X-19.011551
N3050 G2 X-20.81155 Y-18.7955 I0. J1.800001
N3055 G1 Y19.164499
N3060 G2 X-19.011551 Y20.9645 I1.799999 J0.
N3065 G1 X18.92845
N3070 G2 X20.728451 Y19.164499 I0. J-1.800001
N3075 G1 Y-18.7955
N3080 G2 X18.92845 Y-20.595501 I-1.800001 J0.
N3085 G1 X-0.041549
N3090 G2 X-0.266549 Y-20.445499 I0. J0.243752
N3095 G3 X-0.491549 Y-20.2955 I-0.225 J-0.09375
N3100 G1 X-19.011551
N3105 G2 X-20.511551 Y-18.7955 I0. J1.5
N3110 G1 Y19.164499
N3115 G2 X-19.011551 Y20.664499 I1.5 J0.
N3120 G1 X18.92845
N3125 G2 X20.42845 Y19.164499 I0. J-1.5
N3130 G1 Y-18.7955
N3135 G2 X18.92845 Y-20.2955 I-1.5 J0.
N3140 G1 X-0.491549
N3145 G3 X-0.791549 Y-20.595501 I0. J-0.300001
N3150 G1 Y-20.8955
N3155 G19 G2 Y-21.195499 Z15.999999 J0. K0.3
N3160 G1 X0.258451 Y-21.495501
N3165 Z15.699999 F333.333008
N3170 G3 Y-21.195499 Z15.4 J0.300001 K0.000001 F1000.
N3175 G1 Y-20.8955
N3180 G17 G3 X-0.041549 Y-20.595501 I-0.3 J0.
N3185 G1 X-19.011551
N3190 G2 X-20.81155 Y-18.7955 I0. J1.800001
N3195 G1 Y19.164499
N3200 G2 X-19.011551 Y20.9645 I1.799999 J0.
N3205 G1 X18.92845
N3210 G2 X20.728451 Y19.164499 I0. J-1.800001
N3215 G1 Y-18.7955
N3220 G2 X18.92845 Y-20.595501 I-1.800001 J0.
N3225 G1 X-0.041549
N3230 G2 X-0.266549 Y-20.445499 I0. J0.243752
N3235 G3 X-0.491549 Y-20.2955 I-0.225 J-0.09375
N3240 G1 X-19.011551
N3245 G2 X-20.511551 Y-18.7955 I0. J1.5
N3250 G1 Y19.164499
N3255 G2 X-19.011551 Y20.664499 I1.5 J0.
N3260 G1 X18.92845
N3265 G2 X20.42845 Y19.164499 I0. J-1.5
N3270 G1 Y-18.7955
N3275 G2 X18.92845 Y-20.2955 I-1.5 J0.
N3280 G1 X-0.491549
N3285 G3 X-0.791549 Y-20.595501 I0. J-0.300001
N3290 G1 Y-20.8955
N3295 G19 G2 Y-21.195499 Z15.699999 J0. K0.3
N3300 G1 Z23.5 F300.
N3305 G17
N3310 G53 G1 Z0. F300.
N3315 G53 G1 X-38. Y29.

(Roulant 5 axes1)
N3320 G1 B-38.962 C92.299
N3325 G1 X-30.121567 Y-1.282272 F300.
N3330 G43 Z5.863787 H3
N3335 B-38.962 C92.299
N3340 X-28.214227 Z3.50521 F300.
N3345 X-28.164671 Z3.416617 F1000.
N3350 X-28.147497 Z3.316569
N3355 X-28.147498 Z1.305122
N3360 X-28.128342 Y-1.277191 Z1.197894
N3365 X-28.073404 Y-1.262622 Z1.104831
N3370 X-27.989945 Y-1.240489 Z1.038231
N3375 X-27.888988 Y-1.213715 Z1.006894
N3380  X-27.797679 Y-1.00352 Z0.407171 B-40.16 C91.807
N3385 X-27.693596 Y-0.734624 Z-0.189267 B-41.359 C91.139
N3390 X-27.567468 Y-1.067275 Z-0.999862 B-43.052 C92.237
N3395 X-27.478978 Y-0.737818 Z-1.687718 B-44.461 C91.602
N3400 X-27.4479 Y-0.04155 Z-1.954796 B-45. C90.
N3405 X-27.471638 Y0.015961 Z-2.003324 B-45.048 C93.323
N3410 X-27.667905 Y0.112989 Z-2.400751 B-45.432 C99.924
N3415 X-28.043643 Y0.156797 Z-3.19355 B-46.189 C106.398
N3420 X-28.560928 Y0.116075 Z-4.370826 B-47.302 C112.673
N3425 X-29.168642 Y-0.034815 Z-5.916364 B-48.743 C118.695
N3430 X-29.80776 Y-0.3154 Z-7.808794 B-50.484 C124.431
N3435 X-30.416373 Y-0.739613 Z-10.021809 B-52.492 C129.866
N3440 X-30.933785 Y-1.316913 Z-12.52443 B-54.736 C135.
N3445  X-31.082935 Y-1.007196 Z-12.524431 F1000.
N3450 X-31.18426 Y-0.678711
N3455 X-31.235495 Y-0.338791 Z-12.52443
N3460 Y0.004966
N3465 X-31.184259 Y0.344885
N3470 X-31.082935 Y0.673372 Z-12.524431
N3475 X-30.933785 Y0.983088 Z-12.52443
N3480  X-30.397664 Y0.408151 Z-9.997433 B-52.492 C140.134
N3485 X-29.76784 Y-0.010562 Z-7.760395 B-50.484 C145.569
N3490 X-29.105571 Y-0.282075 Z-5.844463 B-48.743 C151.305
N3495 X-28.473533 Y-0.419952 Z-4.276111 B-47.302 C157.327
N3500 X-27.931708 Y-0.443489 Z-3.076868 B-46.189 C163.602
N3505 X-27.532316 Y-0.378309 Z-2.263103 B-45.432 C170.076
N3510 X-27.314431 Y-0.255979 Z-1.845852 B-45.048 C176.677
N3515 X-27.29932 Y-0.112401 Z-1.830716 C183.323
N3520 X-27.487686 Y0.014831 Z-2.217795 B-45.432 C189.924
N3525 X-27.859591 Y0.089499 Z-3.001694 B-46.189 C196.398
N3530 X-28.377077 Y0.079467 Z-4.171577 B-47.302 C202.673
N3535 X-28.988737 Y-0.041609 Z-5.711272 B-48.743 C208.695
N3540 X-29.635086 Y-0.293793 Z-7.599444 B-50.484 C214.431
N3545 X-30.25365 Y-0.691376 Z-9.809805 B-52.492 C219.866
N3550 X-30.783141 Y-1.24401 Z-12.311388 B-54.736 C225.
N3555  X-30.932292 Y-0.934294 Z-12.311389 F1000.
N3560 X-31.033616 Y-0.605807 Z-12.311388
N3565 X-31.084851 Y-0.265889 Z-12.311387
N3570 X-31.084852 Y0.077868 Z-12.311388
N3575 X-31.033616 Y0.417788
N3580 X-30.932292 Y0.746274 Z-12.311389
N3585 X-30.783141 Y1.055991 Z-12.311388
N3590  X-30.243926 Y0.503088 Z-9.797135 B-52.492 C230.134
N3595 X-29.614101 Y0.106764 Z-7.574002 B-50.484 C235.569
N3600 X-28.955193 Y-0.142357 Z-5.673032 B-48.743 C241.305
N3605 X-28.330032 Y-0.258312 Z-4.120592 B-47.302 C247.327
N3610 X-27.798583 Y-0.260969 Z-2.938099 B-46.189 C253.602
N3615 X-27.412832 Y-0.176586 Z-2.141803 B-45.432 C260.076
N3620 X-27.211374 Y-0.03735 Z-1.742622 B-45.048 C266.677
N3625 X-27.214777 Y0.12031 Z-1.74603 C273.323
N3630 X-27.422883 Y0.258442 Z-2.152006 B-45.432 C279.924
N3635 X-27.814824 Y0.340689 Z-2.955029 B-46.189 C286.398
N3640 X-28.351755 Y0.33499 Z-4.144134 B-47.302 C292.673
N3645 X-28.981505 Y0.215251 Z-5.703027 B-48.743 C298.695
N3650 X-29.643998 Y-0.038222 Z-7.610248 B-50.484 C304.431
N3655 X-30.276358 Y-0.439305 Z-9.839389 B-52.492 C309.866
N3660 X-30.817067 Y-0.99723 Z-12.359367 B-54.736 C315.
N3665  X-30.966217 Y-0.687514 F1000.
N3670 X-31.067541 Y-0.359028 Z-12.359366
N3675 X-31.118777 Y-0.019108
N3680 Y0.324651
N3685 X-31.067542 Y0.664569 Z-12.359367
N3690 X-30.966217 Y0.993054
N3695 X-30.817066 Y1.302771 Z-12.359366
N3700  X-30.292486 Y0.744642 Z-9.860402 B-52.492 C320.134
N3705 X-29.678698 Y0.340778 Z-7.652319 B-50.484 C325.569
N3710 X-29.036806 Y0.081509 Z-5.766071 B-48.743 C331.305
N3715 X-28.429075 Y-0.047436 Z-4.22793 B-47.302 C337.327
N3720 X-27.914779 Y-0.066039 Z-3.059222 B-46.189 C343.602
N3725 X-27.545129 Y-0.000509 Z-2.27611 B-45.432 C350.076
N3730 X-27.357932 Y0.117217 Z-1.889426 B-45.048 C356.677
N3735 X-27.373043 Y0.251162 Z-1.904563 C363.323
N3740 X-27.589759 Y0.363987 Z-2.321418 B-45.432 C369.924
N3745 X-27.986895 Y0.420029 Z-3.134396 B-46.189 C376.398
N3750 X-28.525531 Y0.38792 Z-4.332464 B-47.302 C382.673
N3755 X-29.15364 Y0.242175 Z-5.899262 B-48.743 C388.695
N3760 X-29.811452 Y-0.036423 Z-7.81327 B-50.484 C394.431
N3765 X-30.436499 Y-0.461417 Z-10.04803 B-52.492 C399.866
N3770 X-30.96771 Y-1.041849 Z-12.572408 B-54.736 C405.
N3775  X-31.11686 Y-0.732132 Z-12.572409 F1000.
N3780 X-31.218185 Y-0.403647
N3785 X-31.269421 Y-0.063727
N3790 X-31.26942 Y0.28003 Z-12.572408
N3795 X-31.218185 Y0.619951 Z-12.572409
N3800 X-31.11686 Y0.948436
N3805 X-30.96771 Y1.258152
N3810  X-30.448806 Y0.67583 Z-10.064063 B-52.492 C410.134
N3815 X-29.837657 Y0.246858 Z-7.845041 B-50.484 C415.569
N3820 X-29.194953 Y-0.038079 Z-5.946359 B-48.743 C421.305
N3825 X-28.58265 Y-0.192754 Z-4.394367 B-47.302 C427.327
N3830 X-28.059883 Y-0.236517 Z-3.210479 B-46.189 C433.602
N3835 X-27.677955 Y-0.194845 Z-2.410954 B-45.432 C440.076
N3840 X-27.475041 Y-0.098922 Z-2.006733 B-45.048 C446.677
N3845 X-27.4479 Y-0.04155 Z-1.954796 B-45. C450.
N3850 X-27.480636 Y0.65475 Z-1.689344 B-44.461 C448.398
N3855 X-27.569837 Y0.984238 Z-1.002075 B-43.052 C447.763
N3860 X-27.694836 Y0.65154 Z-0.190358 B-41.359 C448.861
N3865 X-27.799681 Y0.920461 Z0.405481 B-40.16 C448.193
N3870 X-27.89158 Y1.130682 Z1.004798 B-38.962 C447.701
N3875  X-27.992537 Y1.157456 Z1.036135 F1000.
N3880 X-28.075996 Y1.179589 Z1.102736
N3885 X-28.130933 Y1.194158 Z1.195798
N3890 X-28.15009 Y1.199238 Z1.303027
N3895 X-28.150089 Z3.314473 F300.
N3900 X-30.176046 Z5.819731 F300.
N3905 X-28.451721 Y1.31372 Z8.201511 B-36.447 C441.419 F300.
N3910 X-26.824566 Y1.285242 Z10.148029 B-34.301 C434.405 F300.
N3915 X-25.423444 Y1.116958 Z11.636317 B-32.598 C426.667 F300.
N3920 X-24.377264 Y0.82475 Z12.648864 B-31.411 C418.296 F300.
N3925 X-23.795253 Y0.441642 Z13.173785 B-30.8 C409.485 F300.
N3930 X-23.743016 Y0.016895 Z13.204925 C400.515 F300.
N3935 X-24.22488 Y-0.392333 Z12.741921 B-31.411 C391.704 F300.
N3940 X-25.182795 Y-0.733437 Z11.790209 B-32.598 C383.333 F300.
N3945 X-26.512433 Y-0.968 Z10.360963 B-34.301 C375.595 F300.
N3950 X-28.086824 Y-1.074401 Z8.471001 B-36.447 C368.581 F300.
N3955 X-29.776768 Y-1.044596 Z6.14262 B-38.962 C362.299 F300.
N3960 X-27.903644 Z3.826352 F300.
N3965 X-27.854087 Z3.737759 F1000.
N3970 X-27.836912 Z3.637712
N3975 Z1.37441
N3980 X-27.817757 Y-1.039516 Z1.26718
N3985 X-27.762819 Y-1.024947 Z1.174117
N3990 X-27.679359 Y-1.002813 Z1.107518
N3995 X-27.578405 Y-0.97604 Z1.076182
N4000  X-27.487058 Y-0.768302 Z0.484244 B-40.16 C361.807
N4005 X-27.382614 Y-0.502765 Z-0.103908 B-41.359 C361.139
N4010 X-27.262427 Y-0.829909 Z-0.908426 B-43.052 C362.237
N4015 X-27.174413 Y-0.503629 Z-1.586973 B-44.461 C361.602
N4020 X-27.139746 Y0.1845 Z-1.846644 B-45. C360.
N4025 X-27.173209 Y0.25936 Z-1.904563 B-45.048 C363.323
N4030 X-27.391249 Y0.388361 Z-2.321418 B-45.432 C369.924
N4035 X-27.79092 Y0.459954 Z-3.134396 B-46.189 C376.398
N4040 X-28.333102 Y0.442433 Z-4.332464 B-47.302 C382.673
N4045 X-28.965518 Y0.310078 Z-5.899262 B-48.743 C388.695
N4050 X-29.628131 Y0.043538 Z-7.81327 B-50.484 C394.431
N4055 X-30.258221 Y-0.370767 Z-10.04803 B-52.492 C399.866
N4060 X-30.794504 Y-0.941848 Z-12.572408 B-54.736 C405.
N4065  X-30.930686 Y-0.659065 F1000.
N4070 X-31.023199 Y-0.359142
N4075 X-31.069978 Y-0.048781
N4080 X-31.069979 Y0.265084 Z-12.572409
N4085 X-31.0232 Y0.575445
N4090 X-30.930687 Y0.875368
N4095 X-30.794504 Y1.158151
N4100  X-30.270528 Y0.58518 Z-10.064063 B-52.492 C410.134
N4105 X-29.654336 Y0.166896 Z-7.845041 B-50.484 C415.569
N4110 X-29.006831 Y-0.105982 Z-5.946359 B-48.743 C421.305
N4115 X-28.390222 Y-0.247267 Z-4.394367 B-47.302 C427.327
N4120 X-27.863908 Y-0.276442 Z-3.210479 B-46.189 C433.602
N4125 X-27.479445 Y-0.219219 Z-2.410954 B-45.432 C440.076
N4130 X-27.275208 Y-0.107119 Z-2.006733 B-45.048 C446.677
N4135 X-27.271805 Y0.024159 Z-2.003324 C453.323
N4140 X-27.469394 Y0.137363 Z-2.400751 B-45.432 C459.924
N4145 X-27.847667 Y0.196722 Z-3.19355 B-46.189 C466.398
N4150 X-28.368499 Y0.170589 Z-4.370826 B-47.302 C472.673
N4155 X-28.98052 Y0.033088 Z-5.916364 B-48.743 C478.695
N4160 X-29.624439 Y-0.235438 Z-7.808794 B-50.484 C484.431
N4165 X-30.238095 Y-0.648963 Z-10.021809 B-52.492 C489.866
N4170 X-30.760578 Y-1.216912 Z-12.52443 B-54.736 C495.
N4175  X-30.896761 Y-0.934129 F1000.
N4180 X-30.989274 Y-0.634207
N4185 X-31.036053 Y-0.323846
N4190 Y-0.009979
N4195 X-30.989274 Y0.300382
N4200 X-30.896761 Y0.600305
N4205 X-30.760578 Y0.883088
N4210  X-30.219386 Y0.317501 Z-9.997433 B-52.492 C500.134
N4215 X-29.584518 Y-0.090523 Z-7.760395 B-50.484 C505.569
N4220 X-28.917449 Y-0.349977 Z-5.844463 B-48.743 C511.305
N4225 X-28.281104 Y-0.474465 Z-4.276111 B-47.302 C517.327
N4230 X-27.735732 Y-0.483414 Z-3.076868 B-46.189 C523.602
N4235 X-27.333806 Y-0.402683 Z-2.263103 B-45.432 C530.076
N4240 X-27.114597 Y-0.264176 Z-1.845852 B-45.048 C536.677
N4245 X-27.099486 Y-0.104203 Z-1.830716 C543.323
N4250 X-27.289176 Y0.039205 Z-2.217795 B-45.432 C549.924
N4255 X-27.663616 Y0.129424 Z-3.001694 B-46.189 C556.398
N4260 X-28.184648 Y0.133981 Z-4.171577 B-47.302 C562.673
N4265 X-28.800615 Y0.026294 Z-5.711272 B-48.743 C568.695
N4270 X-29.451764 Y-0.213831 Z-7.599444 B-50.484 C574.431
N4275 X-30.075372 Y-0.600726 Z-9.809805 B-52.492 C579.866
N4280 X-30.609935 Y-1.14401 Z-12.311388 B-54.736 C585.
N4285  X-30.746118 Y-0.861227 F1000.
N4290 X-30.838631 Y-0.561304
N4295 X-30.88541 Y-0.250943
N4300 Y0.062924
N4305 X-30.838631 Y0.373285
N4310 X-30.746118 Y0.673207
N4315 X-30.609935 Y0.95599
N4320  X-30.065648 Y0.412438 Z-9.797135 B-52.492 C590.134
N4325 X-29.430779 Y0.026802 Z-7.574002 B-50.484 C595.569
N4330 X-28.767072 Y-0.21026 Z-5.673032 B-48.743 C601.305
N4335 X-28.137604 Y-0.312825 Z-4.120592 B-47.302 C607.327
N4340 X-27.602607 Y-0.300894 Z-2.938099 B-46.189 C613.602
N4345 X-27.214321 Y-0.20096 Z-2.141803 B-45.432 C620.076
N4350 X-27.01154 Y-0.045547 Z-1.742622 B-45.048 C626.677
N4355 X-27.014944 Y0.128507 Z-1.74603 C633.323
N4360 X-27.224372 Y0.282816 Z-2.152006 B-45.432 C639.924
N4365 X-27.618848 Y0.380614 Z-2.955029 B-46.189 C646.398
N4370 X-28.159326 Y0.389503 Z-4.144134 B-47.302 C652.673
N4375 X-28.793383 Y0.283154 Z-5.703027 B-48.743 C658.695
N4380 X-29.460676 Y0.04174 Z-7.610248 B-50.484 C664.431
N4385 X-30.09808 Y-0.348655 Z-9.839389 B-52.492 C669.866
N4390 X-30.643861 Y-0.897229 Z-12.359367 B-54.736 C675.
N4395  X-30.780044 Y-0.614446 F1000.
N4400 X-30.872557 Y-0.314523
N4405 X-30.919335 Y-0.004162
N4410 Y0.309703 Z-12.359366
N4415 X-30.872556 Y0.620064
N4420 X-30.780043 Y0.919987
N4425 X-30.64386 Y1.20277
N4430  X-30.114208 Y0.653992 Z-9.860402 B-52.492 C680.134
N4435 X-29.495377 Y0.260816 Z-7.652319 B-50.484 C685.569
N4440 X-28.848684 Y0.013606 Z-5.766071 B-48.743 C691.305
N4445 X-28.236646 Y-0.101949 Z-4.22793 B-47.302 C697.327
N4450 X-27.718803 Y-0.105964 Z-3.059222 B-46.189 C703.602
N4455 X-27.346619 Y-0.024883 Z-2.27611 B-45.432 C710.076
N4460 X-27.158098 Y0.10902 Z-1.889426 B-45.048 C716.677
N4465 X-27.139746 Y0.1845 Z-1.846644 B-45. C720.
N4470 X-27.167052 Y0.872485 Z-1.579749 B-44.461 C718.398
N4475 X-27.251904 Y1.198628 Z-0.898595 B-43.052 C717.763
N4480 X-27.377107 Y0.871692 Z-0.09906 B-41.359 C718.861
N4485 X-27.478168 Y1.137118 Z0.491747 B-40.16 C718.193
N4490 X-27.566896 Y1.344743 Z1.085488 B-38.962 C717.701
N4495  X-27.667851 Y1.371517 Z1.116825 F1000.
N4500 X-27.751311 Y1.39365 Z1.183424
N4505 X-27.806249 Y1.408219 Z1.276486
N4510 X-27.825403 Y1.413299 Z1.383716
N4515 X-27.825404 Z3.647019 F300.
N4520 X-29.817146 Z6.109967 F300.
N4525 X-28.08315 Y1.502414 Z8.473715 B-36.447 C711.419 F300.
N4530 X-26.446894 Y1.44574 Z10.405672 B-34.301 C704.405 F300.
N4535 X-25.03749 Y1.246112 Z11.883129 B-32.598 C696.667 F300.
N4540 X-23.984401 Y0.91957 Z12.888774 B-31.411 C688.296 F300.
N4545 X-23.397553 Y0.499968 Z13.410864 B-30.8 C679.485 F300.
N4550 X-23.343105 Y0.038027 Z13.443322 C670.515 F300.
N4555 X-23.825513 Y-0.407351 Z12.985802 B-31.411 C661.704 F300.
N4560 X-24.786412 Y-0.782055 Z12.04369 B-32.598 C653.333 F300.
N4565 X-26.120918 Y-1.046781 Z10.628049 B-34.301 C645.595 F300.
N4570 X-27.701568 Y-1.179706 Z8.755527 B-36.447 C638.581 F300.
N4575 X-29.39891 Y-1.173093 Z6.448187 B-38.962 C632.299 F300.
N4580 X-27.532526 Z4.140254 F300.
N4585 X-27.482969 Z4.051661 F1000.
N4590 X-27.465796 Z3.951613
N4595 Z1.492648
N4600 X-27.446638 Y-1.168013 Z1.385418
N4605 X-27.391702 Y-1.153444 Z1.292357
N4610 X-27.308241 Y-1.13131 Z1.225758
N4615 X-27.207286 Y-1.104537 Z1.19442
N4620  X-27.119347 Y-0.899911 Z0.609496 B-40.16 C631.807
N4625 X-27.018775 Y-0.63858 Z0.027986 B-41.359 C631.139
N4630 X-26.900789 Y-0.9588 Z-0.764114 B-43.052 C632.237
N4635 X-26.817472 Y-0.636532 Z-1.434825 B-44.461 C631.602
N4640 X-26.786978 Y0.04155 Z-1.693874 B-45. C630.
N4645 X-26.815113 Y0.136704 Z-1.74603 B-45.048 C633.323
N4650 X-27.025864 Y0.30719 Z-2.152006 B-45.432 C639.924
N4655 X-27.422875 Y0.420538 Z-2.955029 B-46.189 C646.398
N4660 X-27.9669 Y0.444016 Z-4.144134 B-47.302 C652.673
N4665 X-28.605264 Y0.351056 Z-5.703027 B-48.743 C658.695
N4670 X-29.277357 Y0.1217 Z-7.610248 B-50.484 C664.431
N4675 X-29.919804 Y-0.258006 Z-9.839389 B-52.492 C669.866
N4680 X-30.470657 Y-0.79723 Z-12.359367 B-54.736 C675.
N4685  X-30.610623 Y-0.497068 Z-12.359366 F1000.
N4690 X-30.696342 Y-0.177161 Z-12.359367
N4695 X-30.725207 Y0.152771 Z-12.359366
N4700 X-30.696341 Y0.482702
N4705 X-30.610623 Y0.802608
N4710 X-30.470656 Y1.102771
N4715  X-29.935932 Y0.563343 Z-9.860402 B-52.492 C680.134
N4720 X-29.312058 Y0.180856 Z-7.652319 B-50.484 C685.569
N4725 X-28.660565 Y-0.054296 Z-5.766071 B-48.743 C691.305
N4730 X-28.04422 Y-0.156461 Z-4.22793 B-47.302 C697.327
N4735 X-27.52283 Y-0.145888 Z-3.059222 B-46.189 C703.602
N4740 X-27.148111 Y-0.049257 Z-2.27611 B-45.432 C710.076
N4745 X-26.958268 Y0.100823 Z-1.889426 B-45.048 C716.677
N4750 X-26.973379 Y0.267557 Z-1.904563 C723.323
N4755 X-27.192741 Y0.412735 Z-2.321418 B-45.432 C729.924
N4760 X-27.594946 Y0.499878 Z-3.134396 B-46.189 C736.398
N4765 X-28.140676 Y0.496946 Z-4.332464 B-47.302 C742.673
N4770 X-28.777399 Y0.37798 Z-5.899262 B-48.743 C748.695
N4775 X-29.444812 Y0.123499 Z-7.81327 B-50.484 C754.431
N4780 X-30.079946 Y-0.280118 Z-10.04803 B-52.492 C759.866
N4785 X-30.6213 Y-0.841849 Z-12.572408 B-54.736 C765.
N4790  X-30.761267 Y-0.541686 F1000.
N4795 X-30.846985 Y-0.221779 Z-12.572409
N4800 X-30.875851 Y0.108152
N4805 X-30.846985 Y0.438083
N4810 X-30.761267 Y0.757991 Z-12.572408
N4815 X-30.6213 Y1.058152 Z-12.572409
N4820  X-30.092252 Y0.494531 Z-10.064063 B-52.492 C770.134
N4825 X-29.471017 Y0.086936 Z-7.845041 B-50.484 C775.569
N4830 X-28.818712 Y-0.173884 Z-5.946359 B-48.743 C781.305
N4835 X-28.197795 Y-0.30178 Z-4.394367 B-47.302 C787.327
N4840 X-27.667934 Y-0.316366 Z-3.210479 B-46.189 C793.602
N4845 X-27.280937 Y-0.243593 Z-2.410954 B-45.432 C800.076
N4850 X-27.075377 Y-0.115316 Z-2.006733 B-45.048 C806.677
N4855 X-27.071974 Y0.032356 Z-2.003324 C813.323
N4860 X-27.270886 Y0.161737 Z-2.400751 B-45.432 C819.924
N4865 X-27.651694 Y0.236646 Z-3.19355 B-46.189 C826.398
N4870 X-28.176073 Y0.225101 Z-4.370826 B-47.302 C832.673
N4875 X-28.792401 Y0.10099 Z-5.916364 B-48.743 C838.695
N4880 X-29.44112 Y-0.155478 Z-7.808794 B-50.484 C844.431
N4885 X-30.05982 Y-0.558314 Z-10.021809 B-52.492 C849.866
N4890 X-30.587374 Y-1.116913 Z-12.52443 B-54.736 C855.
N4895  X-30.727342 Y-0.816751 F1000.
N4900 X-30.81306 Y-0.496843 Z-12.524431
N4905 X-30.841926 Y-0.166912
N4910 X-30.81306 Y0.163019
N4915 X-30.727342 Y0.482926 Z-12.52443
N4920 X-30.587374 Y0.783088
N4925  X-30.04111 Y0.226852 Z-9.997433 B-52.492 C860.134
N4930 X-29.4012 Y-0.170484 Z-7.760395 B-50.484 C865.569
N4935 X-28.72933 Y-0.417879 Z-5.844463 B-48.743 C871.305
N4940 X-28.088678 Y-0.528978 Z-4.276111 B-47.302 C877.327
N4945 X-27.539759 Y-0.523338 Z-3.076868 B-46.189 C883.602
N4950 X-27.135298 Y-0.427057 Z-2.263103 B-45.432 C890.076
N4955 X-26.914767 Y-0.272373 Z-1.845852 B-45.048 C896.677
N4960 X-26.899656 Y-0.096006 Z-1.830716 C903.323
N4965 X-27.090668 Y0.063579 Z-2.217795 B-45.432 C909.924
N4970 X-27.467642 Y0.169348 Z-3.001694 B-46.189 C916.398
N4975 X-27.992222 Y0.188493 Z-4.171577 B-47.302 C922.673
N4980 X-28.612496 Y0.094195 Z-5.711272 B-48.743 C928.695
N4985 X-29.268446 Y-0.133871 Z-7.599444 B-50.484 C934.431
N4990 X-29.897097 Y-0.510077 Z-9.809805 B-52.492 C939.866
N4995 X-30.436731 Y-1.04401 Z-12.311388 B-54.736 C945.
N5000  X-30.576698 Y-0.743848 F1000.
N5005 X-30.662416 Y-0.423942
N5010 X-30.691282 Y-0.094011
N5015 X-30.662417 Y0.235921 Z-12.311389
N5020 X-30.576698 Y0.555829 Z-12.311388
N5025 X-30.436731 Y0.855991
N5030  X-29.887372 Y0.321789 Z-9.797135 B-52.492 C950.134
N5035 X-29.247461 Y-0.053158 Z-7.574002 B-50.484 C955.569
N5040 X-28.578953 Y-0.278162 Z-5.673032 B-48.743 C961.305
N5045 X-27.945177 Y-0.367337 Z-4.120592 B-47.302 C967.327
N5050 X-27.406634 Y-0.340818 Z-2.938099 B-46.189 C973.602
N5055 X-27.015813 Y-0.225334 Z-2.141803 B-45.432 C980.076
N5060 X-26.81171 Y-0.053744 Z-1.742622 B-45.048 C986.677
N5065 X-26.786978 Y0.04155 Z-1.693874 B-45. C990.
N5070 X-26.815814 Y0.7196 Z-1.433198 B-44.461 C988.398
N5075 X-26.89842 Y1.041837 Z-0.7619 B-43.052 C987.763
N5080 X-27.017535 Y0.721663 Z0.029077 B-41.359 C988.861
N5085 X-27.117345 Y0.98297 Z0.611186 B-40.16 C988.193
N5090 X-27.204694 Y1.18757 Z1.196516 B-38.962 C987.701
N5095  X-27.30565 Y1.214344 Z1.227854 F1000.
N5100 X-27.38911 Y1.236477 Z1.294453
N5105 X-27.444047 Y1.251046 Z1.387514
N5110 X-27.463204 Y1.256127 Z1.494744
N5115 Z3.953709 F300.
N5120 X-29.448206 Z6.408322 F300.
N5125 X-26.834323 Y1.290372 Z10.210146 B-34.104 C987.254 F300.
N5130 X-23.800809 Y1.319286 Z13.605893 B-29.247 C986.679 F300.
N5135 X-20.397741 Y1.342797 Z16.553226 B-24.394 C985.899 F300.
N5140 X-16.678525 Y1.360452 Z19.015562 B-19.547 C984.758 F300.
N5145 X-12.698135 Y1.370658 Z20.962448 B-14.712 C982.904 F300.
N5150 X-8.50825 Y1.366901 Z22.369874 B-9.905 C979.295 F300.
N5155 X-4.135258 Y1.302372 Z23.220518 B-5.207 C969.151 F300.
N5160 X-0.263833 Y0.025295 Z23.503877 B-1.867 C905.545 F300.
N5165 X-4.178332 Y-1.319816 Z23.216592 B-5.207 C830.849 F300.
N5170 X-8.553053 Y-1.377347 Z22.362051 B-9.905 C820.705 F300.
N5175 X-12.742564 Y-1.379121 Z20.950782 B-14.712 C817.096 F300.
N5180 X-16.721971 Y-1.368328 Z19.000137 B-19.547 C815.242 F300.
N5185 X-20.439803 Y-1.35066 Z16.534151 B-24.394 C814.101 F300.
N5190 X-23.84115 Y-1.327425 Z13.583304 B-29.247 C813.321 F300.
N5195 X-26.872637 Y-1.298954 Z10.184202 B-34.104 C812.746 F300.
N5200 X-29.484207 Y-1.265255 Z6.379209 B-38.962 C812.299 F300.
N5205 X-27.617823 Z4.071276 F300.
N5210 X-27.568266 Z3.982683 F1000.
N5215 X-27.551091 Z3.882636
N5220 Z1.241793
N5225 X-27.531936 Y-1.260174 Z1.134564
N5230 X-27.476999 Y-1.245605 Z1.041501
N5235 X-27.393538 Y-1.223472 Z0.974902
N5240 X-27.292584 Y-1.196698 Z0.943565
N5245  X-27.19998 Y-0.990145 Z0.356406 B-40.16 C811.807
N5250 X-27.094869 Y-0.726188 Z-0.227421 B-41.359 C811.139
N5255 X-26.96805 Y-1.050718 Z-1.020482 B-43.052 C812.237
N5260 X-26.879122 Y-0.72596 Z-1.693474 B-44.461 C811.602
N5265 X-26.847899 Y-0.04155 Z-1.954796 B-45. C810.
N5270 X-26.872141 Y0.040553 Z-2.003324 B-45.048 C813.323
N5275 X-27.072376 Y0.186111 Z-2.400751 B-45.432 C819.924
N5280 X-27.455718 Y0.276571 Z-3.19355 B-46.189 C826.398
N5285 X-27.983644 Y0.279614 Z-4.370826 B-47.302 C832.673
N5290 X-28.60428 Y0.168893 Z-5.916364 B-48.743 C838.695
N5295 X-29.257799 Y-0.075516 Z-7.808794 B-50.484 C844.431
N5300 X-29.881542 Y-0.467663 Z-10.021809 B-52.492 C849.866
N5305 X-30.414168 Y-1.016912 Z-12.52443 B-54.736 C855.
N5310  X-30.539403 Y-0.748347 Z-12.524431 F1000.
N5315 X-30.616098 Y-0.462114 Z-12.52443
N5320 X-30.641926 Y-0.166912 Z-12.524431
N5325 X-30.616098 Y0.12829 Z-12.52443
N5330 X-30.539402 Y0.414521
N5335 X-30.414168 Y0.683088
N5340  X-29.862832 Y0.136202 Z-9.997433 B-52.492 C860.134
N5345 X-29.217878 Y-0.250445 Z-7.760395 B-50.484 C865.569
N5350 X-28.541209 Y-0.485782 Z-5.844463 B-48.743 C871.305
N5355 X-27.896249 Y-0.583491 Z-4.276111 B-47.302 C877.327
N5360 X-27.343783 Y-0.563263 Z-3.076868 B-46.189 C883.602
N5365 X-26.936787 Y-0.451431 Z-2.263103 B-45.432 C890.076
N5370 X-26.714934 Y-0.280571 Z-1.845852 B-45.048 C896.677
N5375 X-26.699823 Y-0.087809 Z-1.830716 C903.323
N5380 X-26.892158 Y0.087953 Z-2.217795 B-45.432 C909.924
N5385 X-27.271667 Y0.209273 Z-3.001694 B-46.189 C916.398
N5390 X-27.799793 Y0.243007 Z-4.171577 B-47.302 C922.673
N5395 X-28.424374 Y0.162098 Z-5.711272 B-48.743 C928.695
N5400 X-29.085124 Y-0.053909 Z-7.599444 B-50.484 C934.431
N5405 X-29.718819 Y-0.419427 Z-9.809805 B-52.492 C939.866
N5410 X-30.263525 Y-0.94401 Z-12.311388 B-54.736 C945.
N5415  X-30.388759 Y-0.675443 F1000.
N5420 X-30.465455 Y-0.389212
N5425 X-30.491282 Y-0.09401 Z-12.311389
N5430 X-30.465455 Y0.201192 Z-12.311388
N5435 X-30.388759 Y0.487424
N5440 X-30.263525 Y0.75599
N5445  X-29.709094 Y0.231138 Z-9.797135 B-52.492 C950.134
N5450 X-29.064139 Y-0.13312 Z-7.574002 B-50.484 C955.569
N5455 X-28.390831 Y-0.346065 Z-5.673032 B-48.743 C961.305
N5460 X-27.752749 Y-0.421851 Z-4.120592 B-47.302 C967.327
N5465 X-27.210659 Y-0.380743 Z-2.938099 B-46.189 C973.602
N5470 X-26.817303 Y-0.249708 Z-2.141803 B-45.432 C980.076
N5475 X-26.611877 Y-0.061941 Z-1.742622 B-45.048 C986.677
N5480 X-26.61528 Y0.144902 Z-1.74603 C993.323
N5485 X-26.827354 Y0.331565 Z-2.152006 B-45.432 C999.924
N5490 X-27.226899 Y0.460463 Z-2.955029 B-46.189 C1006.398
N5495 X-27.774471 Y0.498529 Z-4.144134 B-47.302 C1012.673
N5500 X-28.417142 Y0.418959 Z-5.703027 B-48.743 C1018.695
N5505 X-29.094036 Y0.201662 Z-7.610248 B-50.484 C1024.431
N5510 X-29.741526 Y-0.167355 Z-9.839389 B-52.492 C1029.866
N5515 X-30.297451 Y-0.697229 Z-12.359367 B-54.736 C1035.
N5520  X-30.422684 Y-0.428664 Z-12.359366 F1000.
N5525 X-30.499381 Y-0.142431 Z-12.359367
N5530 X-30.525208 Y0.15277
N5535 X-30.499381 Y0.447973
N5540 X-30.422685 Y0.734205
N5545 X-30.29745 Y1.00277 Z-12.359366
N5550  X-29.757654 Y0.472693 Z-9.860402 B-52.492 C1040.134
N5555 X-29.128737 Y0.100894 Z-7.652319 B-50.484 C1045.569
N5560 X-28.472443 Y-0.122199 Z-5.766071 B-48.743 C1051.305
N5565 X-27.851791 Y-0.210975 Z-4.22793 B-47.302 C1057.327
N5570 X-27.326854 Y-0.185813 Z-3.059222 B-46.189 C1063.602
N5575 X-26.9496 Y-0.073631 Z-2.27611 B-45.432 C1070.076
N5580 X-26.758435 Y0.092626 Z-1.889426 B-45.048 C1076.677
N5585 X-26.773546 Y0.275754 Z-1.904563 C1083.323
N5590 X-26.99423 Y0.437109 Z-2.321418 B-45.432 C1089.924
N5595 X-27.398971 Y0.539803 Z-3.134396 B-46.189 C1096.398
N5600 X-27.948247 Y0.551459 Z-4.332464 B-47.302 C1102.673
N5605 X-28.589278 Y0.445882 Z-5.899262 B-48.743 C1108.695
N5610 X-29.261491 Y0.20346 Z-7.81327 B-50.484 C1114.431
N5615 X-29.901668 Y-0.189467 Z-10.04803 B-52.492 C1119.866
N5620 X-30.448093 Y-0.741848 Z-12.572408 B-54.736 C1125.
N5625  X-30.573328 Y-0.473283 Z-12.572409 F1000.
N5630 X-30.650024 Y-0.187051
N5635 X-30.675851 Y0.108152
N5640 X-30.650024 Y0.403353
N5645 X-30.573328 Y0.689587
N5650 X-30.448094 Y0.958151
N5655  X-29.913974 Y0.403881 Z-10.064063 B-52.492 C1130.134
N5660 X-29.287696 Y0.006974 Z-7.845041 B-50.484 C1135.569
N5665 X-28.630591 Y-0.241787 Z-5.946359 B-48.743 C1141.305
N5670 X-28.005367 Y-0.356293 Z-4.394367 B-47.302 C1147.327
N5675 X-27.471959 Y-0.356291 Z-3.210479 B-46.189 C1153.602
N5680 X-27.082426 Y-0.267967 Z-2.410954 B-45.432 C1160.076
N5685 X-26.875544 Y-0.123513 Z-2.006733 B-45.048 C1166.677
N5690 X-26.847899 Y-0.04155 Z-1.954796 B-45. C1170.
N5695 X-26.880779 Y0.642893 Z-1.695101 B-44.461 C1168.398
N5700 X-26.970419 Y0.967681 Z-1.022696 B-43.052 C1167.763
N5705 X-27.096109 Y0.643105 Z-0.228513 B-41.359 C1168.861
N5710 X-27.201982 Y0.907086 Z0.354717 B-40.16 C1168.193
N5715 X-27.295176 Y1.113665 Z0.941469 B-38.962 C1167.701
N5720  X-27.39613 Y1.140439 Z0.972806 F1000.
N5725 X-27.47959 Y1.162572 Z1.039405
N5730 X-27.534528 Y1.177141 Z1.132468
N5735 X-27.553683 Y1.182221 Z1.239697
N5740 Z3.88054 F300.
N5745 X-29.538685 Z6.335154 F300.
N5750 X-26.957585 Y1.218908 Z10.126681 B-34.104 C1167.254 F300.
N5755 X-23.959154 Y1.251171 Z13.517226 B-29.247 C1166.679 F300.
N5760 X-20.592882 Y1.279447 Z16.46473 B-24.394 C1165.899 F300.
N5765 X-16.911588 Y1.304298 Z18.932813 B-19.547 C1164.758 F300.
N5770 X-12.969653 Y1.326486 Z20.891156 B-14.712 C1162.904 F300.
N5775 X-8.817916 Y1.346423 Z22.3158 B-9.905 C1159.295 F300.
N5780 X-4.476756 Y1.348953 Z23.189395 B-5.207 C1149.151 F300.
N5785 X-0.377573 Y0.384982 Z23.500171 B-1.867 C1085.545 F300.
N5790 X-3.832998 Y-1.103741 Z23.248065 B-5.207 C1010.849 F300.
N5795 X-8.148371 Y-1.219785 Z22.432717 B-9.905 C1000.705 F300.
N5800 X-12.305745 Y-1.243781 Z21.065477 B-14.712 C997.096 F300.
N5805 X-16.262476 Y-1.244754 Z19.16328 B-19.547 C995.242 F300.
N5810 X-19.964551 Y-1.234526 Z16.749679 B-24.394 C994.101 F300.
N5815 X-23.356657 Y-1.216562 Z13.854603 B-29.247 C993.321 F300.
N5820 X-26.385517 Y-1.192139 Z10.514051 B-34.104 C992.746 F300.
N5825 X-29.001306 Y-1.161749 Z6.769722 B-38.962 C992.299 F300.
N5830 X-27.134922 Z4.46179 F300.
N5835 X-27.085365 Z4.373196 F1000.
N5840 X-27.068191 Z4.273149
N5845 Z1.45043
N5850 X-27.049034 Y-1.156669 Z1.343199
N5855 X-26.994098 Y-1.142099 Z1.250138
N5860 X-26.910638 Y-1.119966 Z1.183539
N5865 X-26.809682 Y-1.093192 Z1.152201
N5870  X-26.720882 Y-0.890994 Z0.575654 B-40.16 C991.807
N5875 X-26.619623 Y-0.632956 Z0.002548 B-41.359 C991.139
N5880 X-26.501178 Y-0.947762 Z-0.777861 B-43.052 C992.237
N5885 X-26.417567 Y-0.628627 Z-1.438661 B-44.461 C991.602
N5890 X-26.386978 Y0.04155 Z-1.693874 B-45. C990.
N5895 X-26.415449 Y0.153099 Z-1.74603 B-45.048 C993.323
N5900 X-26.628846 Y0.355938 Z-2.152006 B-45.432 C999.924
N5905 X-27.030926 Y0.500388 Z-2.955029 B-46.189 C1006.398
N5910 X-27.582045 Y0.553042 Z-4.144134 B-47.302 C1012.673
N5915 X-28.229023 Y0.48686 Z-5.703027 B-48.743 C1018.695
N5920 X-28.910717 Y0.281622 Z-7.610248 B-50.484 C1024.431
N5925 X-29.563251 Y-0.076706 Z-9.839389 B-52.492 C1029.866
N5930 X-30.124247 Y-0.59723 Z-12.359367 B-54.736 C1035.
N5935  X-30.234747 Y-0.36026 Z-12.359366 F1000.
N5940 X-30.302419 Y-0.107702
N5945 X-30.325207 Y0.15277 Z-12.359367
N5950 X-30.30242 Y0.413243
N5955 X-30.234747 Y0.6658 Z-12.359366
N5960 X-30.124246 Y0.902771
N5965  X-29.579379 Y0.382043 Z-9.860402 B-52.492 C1040.134
N5970 X-28.945418 Y0.020934 Z-7.652319 B-50.484 C1045.569
N5975 X-28.284324 Y-0.190101 Z-5.766071 B-48.743 C1051.305
N5980 X-27.659365 Y-0.265487 Z-4.22793 B-47.302 C1057.327
N5985 X-27.130881 Y-0.225737 Z-3.059222 B-46.189 C1063.602
N5990 X-26.751093 Y-0.098005 Z-2.27611 B-45.432 C1070.076
N5995 X-26.558604 Y0.084428 Z-1.889426 B-45.048 C1076.677
N6000 X-26.573715 Y0.283951 Z-1.904563 C1083.323
N6005 X-26.795722 Y0.461483 Z-2.321418 B-45.432 C1089.924
N6010 X-27.202997 Y0.579728 Z-3.134396 B-46.189 C1096.398
N6015 X-27.755821 Y0.605972 Z-4.332464 B-47.302 C1102.673
N6020 X-28.401159 Y0.513784 Z-5.899262 B-48.743 C1108.695
N6025 X-29.078172 Y0.283421 Z-7.81327 B-50.484 C1114.431
N6030 X-29.723392 Y-0.098818 Z-10.04803 B-52.492 C1119.866
N6035 X-30.27489 Y-0.641849 Z-12.572408 B-54.736 C1125.
N6040  X-30.38539 Y-0.404878 F1000.
N6045 X-30.453063 Y-0.152321 Z-12.572409
N6050 X-30.475851 Y0.108152
N6055 X-30.453063 Y0.368625
N6060 X-30.38539 Y0.621183 Z-12.572408
N6065 X-30.27489 Y0.858152 Z-12.572409
N6070  X-29.735699 Y0.313232 Z-10.064063 B-52.492 C1130.134
N6075 X-29.104377 Y-0.072986 Z-7.845041 B-50.484 C1135.569
N6080 X-28.442472 Y-0.309688 Z-5.946359 B-48.743 C1141.305
N6085 X-27.812941 Y-0.410806 Z-4.394367 B-47.302 C1147.327
N6090 X-27.275985 Y-0.396215 Z-3.210479 B-46.189 C1153.602
N6095 X-26.883919 Y-0.292341 Z-2.410954 B-45.432 C1160.076
N6100 X-26.675713 Y-0.131711 Z-2.006733 B-45.048 C1166.677
N6105 X-26.67231 Y0.04875 Z-2.003324 C1173.323
N6110 X-26.873868 Y0.210485 Z-2.400751 B-45.432 C1179.924
N6115 X-27.259745 Y0.316495 Z-3.19355 B-46.189 C1186.398
N6120 X-27.791218 Y0.334127 Z-4.370826 B-47.302 C1192.673
N6125 X-28.416161 Y0.236794 Z-5.916364 B-48.743 C1198.695
N6130 X-29.07448 Y0.004444 Z-7.808794 B-50.484 C1204.431
N6135 X-29.703266 Y-0.377014 Z-10.021809 B-52.492 C1209.866
N6140 X-30.240964 Y-0.916913 Z-12.52443 B-54.736 C1215.
N6145  X-30.351465 Y-0.679943 F1000.
N6150 X-30.419138 Y-0.427385 Z-12.524431
N6155 X-30.441926 Y-0.166912
N6160 X-30.419137 Y0.093559 Z-12.52443
N6165 X-30.351465 Y0.346118
N6170 X-30.240964 Y0.583088
N6175  X-29.684557 Y0.045552 Z-9.997433 B-52.492 C1220.134
N6180 X-29.03456 Y-0.330406 Z-7.760395 B-50.484 C1225.569
N6185 X-28.35309 Y-0.553684 Z-5.844463 B-48.743 C1231.305
N6190 X-27.703823 Y-0.638003 Z-4.276111 B-47.302 C1237.327
N6195 X-27.14781 Y-0.603187 Z-3.076868 B-46.189 C1243.602
N6200 X-26.73828 Y-0.475805 Z-2.263103 B-45.432 C1250.076
N6205 X-26.515103 Y-0.288768 Z-1.845852 B-45.048 C1256.677
N6210 X-26.499992 Y-0.079612 Z-1.830716 C1263.323
N6215 X-26.69365 Y0.112327 Z-2.217795 B-45.432 C1269.924
N6220 X-27.075694 Y0.249197 Z-3.001694 B-46.189 C1276.398
N6225 X-27.607367 Y0.297519 Z-4.171577 B-47.302 C1282.673
N6230 X-28.236255 Y0.23 Z-5.711272 B-48.743 C1288.695
N6235 X-28.901805 Y0.026051 Z-7.599444 B-50.484 C1294.431
N6240 X-29.540543 Y-0.328778 Z-9.809805 B-52.492 C1299.866
N6245 X-30.090321 Y-0.844011 Z-12.311388 B-54.736 C1305.
N6250  X-30.200822 Y-0.60704 F1000.
N6255 X-30.268494 Y-0.354481
N6260 X-30.291282 Y-0.09401 Z-12.311389
N6265 X-30.268494 Y0.166462 Z-12.311388
N6270 X-30.200822 Y0.419021
N6275 X-30.090321 Y0.655991
N6280  X-29.530819 Y0.140489 Z-9.797135 B-52.492 C1310.134
N6285 X-28.880821 Y-0.21308 Z-7.574002 B-50.484 C1315.569
N6290 X-28.202712 Y-0.413966 Z-5.673032 B-48.743 C1321.305
N6295 X-27.560323 Y-0.476363 Z-4.120592 B-47.302 C1327.327
N6300 X-27.014685 Y-0.420668 Z-2.938099 B-46.189 C1333.602
N6305 X-26.618795 Y-0.274082 Z-2.141803 B-45.432 C1340.076
N6310 X-26.412046 Y-0.070138 Z-1.742622 B-45.048 C1346.677
N6315 X-26.386978 Y0.04155 Z-1.693874 B-45. C1350.
N6320 X-26.41591 Y0.711695 Z-1.437035 B-44.461 C1348.398
N6325 X-26.498808 Y1.030799 Z-0.775647 B-43.052 C1347.763
N6330 X-26.618383 Y0.71604 Z0.00364 B-41.359 C1348.861
N6335 X-26.718879 Y0.974053 Z0.577344 B-40.16 C1348.193
N6340 X-26.807091 Y1.176226 Z1.154297 B-38.962 C1347.701
N6345  X-26.908046 Y1.202999 Z1.185635 F1000.
N6350 X-26.991507 Y1.225132 Z1.252234
N6355 X-27.046443 Y1.239702 Z1.345295
N6360 X-27.065599 Y1.244782 Z1.452526
N6365 X-27.0656 Z4.275245 F300.
N6370 X-29.050602 Z6.729858 F300.
N6375 M9
N6380 G53 G1 Z0. F300.
N6385 G53 G1 X-38. Y29.
N6390 G1 B0. C0.
N6395 M30
%